STARLINK-3096           
1 49131U 21082B   24307.73842225 -.00001623  00000+0 -12824-3 0  9993
2 49131  70.0014  54.8324 0002908 265.7085  94.3742 14.98326247173275
STARLINK-3090           
1 49132U 21082C   24307.50955557 -.00001358  00000+0 -10601-3 0  9998
2 49132  69.9999  95.4390 0003328 277.3672  82.7109 14.98331140172250
STARLINK-3077           
1 49133U 21082D   24307.56781214 -.00000363  00000+0 -22652-4 0  9997
2 49133  69.9995  95.2716 0003189 271.3492  88.7301 14.98323604172263
STARLINK-3078           
1 49134U 21082E   24307.83064228  .00004634  00000+0  39555-3 0  9999
2 49134  69.9998  94.6117 0002973 266.0397  94.0422 14.98368591173506
STARLINK-3073           
1 49135U 21082F   24307.60073142 -.00001275  00000+0 -99137-4 0  9993
2 49135  69.9999  55.1681 0003021 268.6357  91.4456 14.98322064173261
STARLINK-3084           
1 49136U 21082G   24307.79705646  .00000336  00000+0  35941-4 0  9993
2 49136  70.0001  74.6870 0002898 268.3186  91.7641 14.98337921172809
STARLINK-3055           
1 49137U 21082H   24307.79283144  .00007619  00000+0  64465-3 0  9991
2 49137  69.9994  74.7000 0003476 265.3323  94.7439 14.98387407172797
STARLINK-3058           
1 49138U 21082J   24307.82649467 -.00000562  00000+0 -39284-4 0  9994
2 49138  69.9991  94.6278 0003285 262.1513  97.9273 14.98322945172301
STARLINK-3057           
1 49139U 21082K   24307.59238137  .00004349  00000+0  37209-3 0  9996
2 49139  70.0015  55.1975 0002710 278.3260  81.7592 14.98326967173256
STARLINK-3093           
1 49141U 21082M   24307.82233615 -.00000881  00000+0 -66065-4 0  9993
2 49141  69.9995  94.6404 0003073 271.0360  89.0447 14.98325639173505
STARLINK-3042           
1 49142U 21082N   24307.71337847  .00000881  00000+0  81586-4 0  9997
2 49142  70.0008  54.9028 0003327 269.0202  91.0576 14.98331126173277
STARLINK-3109           
1 49143U 21082P   24307.58844076 -.00002935  00000+0 -23828-3 0  9998
2 49143  69.9994  75.2185 0003099 272.1197  87.9607 14.98331685173878
STARLINK-3100           
1 49144U 21082Q   24307.81397810  .00002473  00000+0  21492-3 0  9994
2 49144  69.9994  94.6392 0003149 270.4180  89.6618 14.98337412172305
STARLINK-3119           
1 49145U 21082R   24307.69669639  .00005502  00000+0  46892-3 0  9999
2 49145  70.0009  54.9318 0003140 258.5511 101.5295 14.98298328173262
STARLINK-3116           
1 49146U 21082S   24307.51750624 -.00000782  00000+0 -57757-4 0  9996
2 49146  70.0013  75.4003 0003169 273.5008  86.5788 14.98319860173901
STARLINK-3071           
1 49147U 21082T   24307.70921310  .00000531  00000+0  52284-4 0  9990
2 49147  70.0010  54.9166 0002819 268.8584  91.2252 14.98329683174441
STARLINK-3048           
1 49148U 21082U   24307.50915956 -.00002186  00000+0 -17546-3 0  9999
2 49148  70.0012  75.4004 0003015 269.0035  91.0778 14.98325014173877
STARLINK-3053           
1 49149U 21082V   24307.54277500 -.00000571  00000+0 -40060-4 0  9994
2 49149  70.0002  95.3273 0002961 269.3622  90.7197 14.98328890173450
STARLINK-3104           
1 49150U 21082W   24307.53860336  .00000309  00000+0  33685-4 0  9992
2 49150  70.0009  95.3423 0002691 264.8036  95.2816 14.98322488173450
STARLINK-3102           
1 49151U 21082X   24307.55482692 -.00003526  00000+0 -28781-3 0  9996
2 49151  70.0018  55.2978 0003175 264.2622  95.8175 14.98338461174457
STARLINK-3081           
1 49152U 21082Y   24307.73006953  .00005437  00000+0  46340-3 0  9991
2 49152  70.0009  54.8459 0003219 267.5972  92.4819 14.98308432174408
STARLINK-3072           
1 49153U 21082Z   24307.54648941 -.00000740  00000+0 -54280-4 0  9997
2 49153  70.0011  55.3247 0002977 270.3074  89.7744 14.98320521173237
STARLINK-3068           
1 49154U 21082AA  24307.57175047 -.00001111  00000+0 -85325-4 0  9990
2 49154  69.9999  75.2468 0002677 268.0376  92.0477 14.98329329173833
STARLINK-3060           
1 49155U 21082AB  24307.47555442 -.00001233  00000+0 -95567-4 0  9995
2 49155  70.0016  55.5076 0002683 264.3692  95.7161 14.98324876174316
STARLINK-3085           
1 49156U 21082AC  24307.58820609  .00000735  00000+0  69389-4 0  9995
2 49156  70.0013  55.2112 0003076 263.8779  96.2030 14.98329443174337
STARLINK-3051           
1 49157U 21082AD  24307.56757792  .00001144  00000+0  10372-3 0  9998
2 49157  69.9993  75.2607 0003304 271.6765  88.4016 14.98322119173855
STARLINK-3083           
1 49158U 21082AE  24307.56755492  .00028578  00000+0  13321-2 0  9990
2 49158  69.9922  54.8075 0004799 285.7935  74.2706 15.19772728174369
STARLINK-3056           
1 49159U 21082AF  24307.60118956  .00000545  00000+0  53515-4 0  9999
2 49159  70.0004  95.1883 0002820 264.8940  95.1898 14.98320971173364
STARLINK-3095           
1 49160U 21082AG  24307.78894490  .00005584  00000+0  47526-3 0  9996
2 49160  70.0001  94.6943 0003173 271.9216  88.1580 14.98341922173371
STARLINK-3080           
1 49161U 21082AH  24307.79311520  .00000767  00000+0  72076-4 0  9993
2 49161  69.9995  94.6814 0002426 268.1355  91.9526 14.98333864173378
STARLINK-3082           
1 49162U 21082AJ  24306.77116647  .01153047  83400-3  12177-2 0  9998
2 49162  69.9903  82.3973 0008195 306.9457 167.2986 16.10232713173667
STARLINK-3088           
1 49163U 21082AK  24307.55923176  .00000048  00000+0  11776-4 0  9997
2 49163  70.0017  75.2905 0002705 266.0403  94.0447 14.98330867173911
STARLINK-3106           
1 49164U 21082AL  24307.75116622 -.00001864  00000+0 -14844-3 0  9997
2 49164  70.0002  74.8129 0003469 266.6387  93.4375 14.98332303173958
STARLINK-3052           
1 49165U 21082AM  24307.58450293  .00000503  00000+0  49984-4 0  9995
2 49165  69.9994  95.2430 0003316 276.8803  83.1979 14.98322982173469
STARLINK-3089           
1 49166U 21082AN  24307.75531303 -.00016148  00000+0 -13461-2 0  9990
2 49166  69.9996  74.7981 0003778 261.8302  98.2429 14.98401454173981
STARLINK-3054           
1 49167U 21082AP  24307.57615213  .00002273  00000+0  19825-3 0  9997
2 49167  69.9993  95.2423 0003544 265.2171  94.8583 14.98317605173461
STARLINK-3101           
1 49168U 21082AQ  24307.73864372  .00001258  00000+0  11320-3 0  9992
2 49168  69.9998  74.8276 0003170 268.3307  91.7489 14.98333060173987
STARLINK-3046           
1 49169U 21082AR  24307.61347964 -.00001844  00000+0 -14679-3 0  9996
2 49169  69.9996  75.1639 0002997 268.4228  91.6587 14.98325940172763
STARLINK-3074           
1 49170U 21082AS  24307.91667824  .01042851  00000+0  23215-1 0  9997
2 49170  70.0000  92.5423 0003254 279.9716 120.9039 15.40955692172358
STARLINK-3107           
1 49171U 21082AT  24307.83901859 -.00000701  00000+0 -50995-4 0  9995
2 49171  69.9996  94.5964 0003100 266.3403  93.7401 14.98333405173462
STARLINK-3091           
1 49172U 21082AU  24307.78036627  .00001131  00000+0  10255-3 0  9992
2 49172  69.9999  74.7269 0003005 271.0440  89.0374 14.98335689172789
STARLINK-3045           
1 49173U 21082AV  24307.60095347 -.00000231  00000+0 -11568-4 0  9999
2 49173  70.0004  75.1804 0003360 262.0356  98.0422 14.98328173172762
STARLINK-3047           
1 49174U 21082AW  24307.60893806  .00083958  00000+0  44173-2 0  9997
2 49174  69.9966  64.7015 0001397 255.0520 105.0493 15.15184558174191
STARLINK-3087           
1 49175U 21082AX  24307.56340866 -.00001006  00000+0 -76552-4 0  9990
2 49175  69.9998  75.2879 0003086 273.5599  86.5207 14.98329890172756
STARLINK-3069           
1 49176U 21082AY  24307.55066447 -.00000163  00000+0 -58352-5 0  9992
2 49176  70.0007  55.3099 0002773 265.4212  94.6630 14.98317711173242
STARLINK-3103           
1 49177U 21082AZ  24307.57151610  .00001201  00000+0  10842-3 0  9994
2 49177  70.0016  55.2682 0003137 271.0572  89.0228 14.98324199174449
STARLINK-3086           
1 49178U 21082BA  24307.79729917 -.00001962  00000+0 -15663-3 0  9992
2 49178  69.9989  94.6790 0003574 271.4749  88.6001 14.98337148173450
STARLINK-3043           
1 49179U 21082BB  24307.69251469 -.00003419  00000+0 -27873-3 0  9999
2 49179  70.0008  54.9461 0003180 265.1807  94.8989 14.98353340173263
STARLINK-3050           
1 49180U 21082BC  24307.74283664 -.00002167  00000+0 -17390-3 0  9991
2 49180  70.0008  74.8242 0003418 262.5701  97.5070 14.98317277173957
STARLINK-3059           
1 49181U 21082BD  24307.84736485  .00014303  00000+0  12029-2 0  9993
2 49181  70.0005  94.5664 0003509 271.5302  88.5455 14.98366943173478
STARLINK-3151           
1 49408U 21104A   24307.61539268 -.00000030  00000+0  16221-4 0  9998
2 49408  53.2168 278.1500 0001288  87.9768 272.1372 15.08843491165446
STARLINK-3075           
1 49409U 21104B   24307.09923470 -.00000443  00000+0 -97707-5 0  9991
2 49409  53.2162 280.4387 0001352  82.7126 277.4020 15.08838043164278
STARLINK-3147           
1 49410U 21104C   24307.09283421  .00006772  00000+0  44314-3 0  9991
2 49410  53.2168 280.4813 0001360  74.1692 285.9450 15.08839643164269
STARLINK-3162           
1 49411U 21104D   24307.28414890  .00014302  00000+0  91420-3 0  9997
2 49411  53.2166 269.6135 0001572  98.8655 261.2515 15.08865428164439
STARLINK-3144           
1 49412U 21104E   24307.58334491  .01344887  00000+0  49580-1 0  9992
2 49412  53.2153 277.9158 0001429  72.8922 240.3723 15.24635941  5800
STARLINK-3157           
1 49413U 21104F   24307.61263041 -.00000417  00000+0 -81144-5 0  9994
2 49413  53.2172 268.1464 0001167  91.4505 268.6621 15.08842736165572
STARLINK-3146           
1 49414U 21104G   24307.61812022  .00001053  00000+0  84217-4 0  9992
2 49414  53.2164 278.1159 0001354  99.7157 260.3988 15.08837839165447
STARLINK-3159           
1 49415U 21104H   24307.27678838  .00000884  00000+0  73592-4 0  9995
2 49415  53.2168 269.6455 0001280  89.6959 270.4180 15.08853072165513
STARLINK-3133           
1 49416U 21104J   24307.21332035  .00020565  00000+0  13067-2 0  9993
2 49416  53.2165 279.9294 0001487 101.5949 258.5210 15.08832055164280
